[
  {
    "name": "ONEWEB-0410",
    "noradId": "51622",
    "line1": "1 51622U 22012A   26200.18639872 -.00000231  00000+0 -62836-3 0  9992",
    "line2": "2 51622  87.9162 359.4944 0001682  53.3972 306.7315 13.17648293217914"
  },
  {
    "name": "ONEWEB-0411",
    "noradId": "51623",
    "line1": "1 51623U 22012B   26200.23619373 -.00000327  00000+0 -97289-3 0  9999",
    "line2": "2 51623  87.8820  29.8814 0002361  95.0812 265.0585 13.10372770213481"
  },
  {
    "name": "ONEWEB-0415",
    "noradId": "51624",
    "line1": "1 51624U 22012C   26200.08008593 -.00000236  00000+0 -71124-3 0  9998",
    "line2": "2 51624  87.8815  29.9104 0002095  87.2776 272.8591 13.10369530213466"
  },
  {
    "name": "ONEWEB-0416",
    "noradId": "51625",
    "line1": "1 51625U 22012D   26200.24467591 -.00000633  00000+0 -18498-2 0  9999",
    "line2": "2 51625  87.8811  29.8938 0002149  83.5341 276.6031 13.10373827213526"
  },
  {
    "name": "ONEWEB-0422",
    "noradId": "51626",
    "line1": "1 51626U 22012E   26199.89278008  .00000068  00000+0  14280-3 0  9997",
    "line2": "2 51626  87.9159 359.5533 0002032 112.9072 247.2275 13.17647465217983"
  },
  {
    "name": "ONEWEB-0423",
    "noradId": "51627",
    "line1": "1 51627U 22012F   26200.18977976 -.00000101  00000+0 -29424-3 0  9999",
    "line2": "2 51627  87.9149 359.4978 0001763  92.8117 267.3217 13.17648242217917"
  },
  {
    "name": "ONEWEB-0425",
    "noradId": "51628",
    "line1": "1 51628U 22012G   26200.02579164 -.00010152  00000+0 -29166-1 0  9998",
    "line2": "2 51628  87.8812  29.9219 0001661  92.7977 267.3341 13.10338547213495"
  },
  {
    "name": "ONEWEB-0428",
    "noradId": "51629",
    "line1": "1 51629U 22012H   26200.08177745 -.00000339  00000+0 -10085-2 0  9991",
    "line2": "2 51629  87.8809  29.9172 0001827  89.0060 271.1277 13.10372823213469"
  },
  {
    "name": "ONEWEB-0431",
    "noradId": "51630",
    "line1": "1 51630U 22012J   26200.05110801  .00000617  00000+0  17308-2 0  9992",
    "line2": "2 51630  87.8818  29.9160 0002430  94.4454 265.6951 13.10374513213517"
  },
  {
    "name": "ONEWEB-0434",
    "noradId": "51631",
    "line1": "1 51631U 22012K   26200.25839938 -.00000471  00000+0 -13850-2 0  9992",
    "line2": "2 51631  87.8823  29.9013 0001440  70.2594 289.8689 13.10376284213522"
  },
  {
    "name": "ONEWEB-0435",
    "noradId": "51632",
    "line1": "1 51632U 22012L   26200.03596725 -.00000017  00000+0 -84629-4 0  9993",
    "line2": "2 51632  87.8819  29.9289 0001935  97.7553 262.3794 13.10379704213489"
  },
  {
    "name": "ONEWEB-0436",
    "noradId": "51633",
    "line1": "1 51633U 22012M   26200.18134047 -.00000006  00000+0 -49617-4 0  9991",
    "line2": "2 51633  87.9156 359.4833 0001959  99.9211 260.2142 13.17647502217896"
  },
  {
    "name": "ONEWEB-0438",
    "noradId": "51634",
    "line1": "1 51634U 22012N   26200.24975527 -.00000706  00000+0 -20588-2 0  9996",
    "line2": "2 51634  87.8816  29.8902 0001771  81.3847 278.7481 13.10372405213544"
  },
  {
    "name": "ONEWEB-0439",
    "noradId": "51635",
    "line1": "1 51635U 22012P   26200.02408449 -.00000561  00000+0 -16442-2 0  9990",
    "line2": "2 51635  87.8819  29.9229 0001742  87.0423 273.0904 13.10376252213498"
  },
  {
    "name": "ONEWEB-0442",
    "noradId": "51636",
    "line1": "1 51636U 22012Q   26200.17374790 -.00000044  00000+0 -14727-3 0  9999",
    "line2": "2 51636  87.9149 359.5146 0001595  75.9405 284.1904 13.17650878217884"
  },
  {
    "name": "ONEWEB-0443",
    "noradId": "51637",
    "line1": "1 51637U 22012R   26199.96534204 -.00000015  00000+0 -72106-4 0  9996",
    "line2": "2 51637  87.9148 359.5573 0001545 100.8988 259.2317 13.17647151217901"
  },
  {
    "name": "ONEWEB-0444",
    "noradId": "51638",
    "line1": "1 51638U 22012S   26200.24297218 -.00000634  00000+0 -18526-2 0  9993",
    "line2": "2 51638  87.8818  29.8781 0001663  92.1404 267.9914 13.10371038213535"
  },
  {
    "name": "ONEWEB-0445",
    "noradId": "51639",
    "line1": "1 51639U 22012T   26200.03426054 -.00000423  00000+0 -12479-2 0  9990",
    "line2": "2 51639  87.8825  29.9101 0001905  85.5210 274.6135 13.10377142213511"
  },
  {
    "name": "ONEWEB-0446",
    "noradId": "51640",
    "line1": "1 51640U 22012U   26200.24127384 -.00000609  00000+0 -17824-2 0  9994",
    "line2": "2 51640  87.8814  29.8955 0002099  81.9089 278.2277 13.10370450213529"
  },
  {
    "name": "ONEWEB-0448",
    "noradId": "51641",
    "line1": "1 51641U 22012V   26200.24636248 -.00000636  00000+0 -18582-2 0  9991",
    "line2": "2 51641  87.8814  29.8897 0001818  88.9775 271.1561 13.10372142213496"
  },
  {
    "name": "ONEWEB-0449",
    "noradId": "51642",
    "line1": "1 51642U 22012W   26200.02238093 -.00000715  00000+0 -20833-2 0  9994",
    "line2": "2 51642  87.8822  29.9217 0001756  68.9489 291.1826 13.10374176213477"
  },
  {
    "name": "ONEWEB-0451",
    "noradId": "51643",
    "line1": "1 51643U 22012X   26199.95014755 -.00000224  00000+0 -61049-3 0  9991",
    "line2": "2 51643  87.9159 359.5276 0001683  89.5029 270.6296 13.17648894217843"
  },
  {
    "name": "ONEWEB-0452",
    "noradId": "51644",
    "line1": "1 51644U 22012Y   26199.94846983 -.00000001  00000+0 -36192-4 0  9992",
    "line2": "2 51644  87.9145 359.5618 0001547  93.8474 266.2835 13.17647313217856"
  },
  {
    "name": "ONEWEB-0456",
    "noradId": "51646",
    "line1": "1 51646U 22012AA  26200.25993507 -.00000451  00000+0 -13293-2 0  9990",
    "line2": "2 51646  87.8832  29.8640 0001846  92.8516 267.2822 13.10373904213544"
  },
  {
    "name": "ONEWEB-0457",
    "noradId": "51647",
    "line1": "1 51647U 22012AB  26200.23774824 -.00000388  00000+0 -11484-2 0  9997",
    "line2": "2 51647  87.8819  29.8828 0002075  77.5195 282.6165 13.10370563213545"
  },
  {
    "name": "ONEWEB-0458",
    "noradId": "51648",
    "line1": "1 51648U 22012AC  26200.25909687 -.00000419  00000+0 -12357-2 0  9992",
    "line2": "2 51648  87.8819  29.8679 0001610  88.4295 271.7017 13.10375878213501"
  },
  {
    "name": "ONEWEB-0461",
    "noradId": "51649",
    "line1": "1 51649U 22012AD  26200.12227630 -.00000098  00000+0 -28445-3 0  9999",
    "line2": "2 51649  87.9161 359.5070 0001914  90.6801 269.4550 13.17648972218096"
  },
  {
    "name": "ONEWEB-0463",
    "noradId": "51650",
    "line1": "1 51650U 22012AE  26200.17964920 -.00000242  00000+0 -65608-3 0  9999",
    "line2": "2 51650  87.9149 359.5150 0001983  90.3765 269.7594 13.17648317217885"
  },
  {
    "name": "ONEWEB-0464",
    "noradId": "51651",
    "line1": "1 51651U 22012AF  26200.25655614 -.00000504  00000+0 -14795-2 0  9997",
    "line2": "2 51651  87.8813  29.8895 0001633  96.3027 263.8286 13.10374832213526"
  },
  {
    "name": "ONEWEB-0468",
    "noradId": "51652",
    "line1": "1 51652U 22012AG  26200.26163629 -.00000382  00000+0 -11294-2 0  9994",
    "line2": "2 51652  87.8816  29.8813 0001735  95.7013 264.4312 13.10374123213509"
  }
]