OBJECT_NAME,OBJECT_ID,EPOCH,MEAN_MOTION,ECCENTRICITY,INCLINATION,RA_OF_ASC_NODE,ARG_OF_PERICENTER,MEAN_ANOMALY,EPHEMERIS_TYPE,CLASSIFICATION_TYPE,NORAD_CAT_ID,ELEMENT_SET_NO,REV_AT_EPOCH,BSTAR,MEAN_MOTION_DOT,MEAN_MOTION_DDOT
ONEWEB-0410,2022-012A,2026-07-19T04:28:24.849408,13.17648293,.00016821,87.9162,359.4944,53.3972,306.7315,0,U,51622,999,21791,-.62836324E-3,-.231E-5,0
ONEWEB-0411,2022-012B,2026-07-19T05:40:07.138272,13.10372770,.00023611,87.8820,29.8814,95.0812,265.0585,0,U,51623,999,21348,-.97288757E-3,-.327E-5,0
ONEWEB-0415,2022-012C,2026-07-19T01:55:19.424352,13.10369530,.00020954,87.8815,29.9104,87.2776,272.8591,0,U,51624,999,21346,-.71123752E-3,-.236E-5,0
ONEWEB-0416,2022-012D,2026-07-19T05:52:19.998624,13.10373827,.00021496,87.8811,29.8938,83.5341,276.6031,0,U,51625,999,21352,-.18498422E-2,-.633E-5,0
ONEWEB-0422,2022-012E,2026-07-18T21:25:36.198912,13.17647465,.00020328,87.9159,359.5533,112.9072,247.2275,0,U,51626,999,21798,.14280116E-3,.68E-6,0
ONEWEB-0423,2022-012F,2026-07-19T04:33:16.971264,13.17648242,.00017634,87.9149,359.4978,92.8117,267.3217,0,U,51627,999,21791,-.29424005E-3,-.101E-5,0
ONEWEB-0425,2022-012G,2026-07-19T00:37:08.397696,13.10338547,.00016616,87.8812,29.9219,92.7977,267.3341,0,U,51628,999,21349,-.2916612E-1,-.10152E-3,0
ONEWEB-0428,2022-012H,2026-07-19T01:57:45.571680,13.10372823,.00018279,87.8809,29.9172,89.0060,271.1277,0,U,51629,999,21346,-.10085037E-2,-.339E-5,0
ONEWEB-0431,2022-012J,2026-07-19T01:13:35.732064,13.10374513,.00024308,87.8818,29.9160,94.4454,265.6951,0,U,51630,999,21351,.17307938E-2,.617E-5,0
ONEWEB-0434,2022-012K,2026-07-19T06:12:05.706432,13.10376284,.00014406,87.8823,29.9013,70.2594,289.8689,0,U,51631,999,21352,-.13850197E-2,-.471E-5,0
ONEWEB-0435,2022-012L,2026-07-19T00:51:47.570400,13.10379704,.00019355,87.8819,29.9289,97.7553,262.3794,0,U,51632,999,21348,-.84628686E-4,-.17E-6,0
ONEWEB-0436,2022-012M,2026-07-19T04:21:07.816608,13.17647502,.00019597,87.9156,359.4833,99.9211,260.2142,0,U,51633,999,21789,-.49616524E-4,-.6E-7,0
ONEWEB-0438,2022-012N,2026-07-19T05:59:38.855328,13.10372405,.00017715,87.8816,29.8902,81.3847,278.7481,0,U,51634,999,21354,-.20588384E-2,-.706E-5,0
ONEWEB-0439,2022-012P,2026-07-19T00:34:40.899936,13.10376252,.00017429,87.8819,29.9229,87.0423,273.0904,0,U,51635,999,21349,-.16441779E-2,-.561E-5,0
ONEWEB-0442,2022-012Q,2026-07-19T04:10:11.818560,13.17650878,.0001595,87.9149,359.5146,75.9405,284.1904,0,U,51636,999,21788,-.14727136E-3,-.44E-6,0
ONEWEB-0443,2022-012R,2026-07-18T23:10:05.552256,13.17647151,.00015458,87.9148,359.5573,100.8988,259.2317,0,U,51637,999,21790,-.72105809E-4,-.15E-6,0
ONEWEB-0444,2022-012S,2026-07-19T05:49:52.796352,13.10371038,.00016639,87.8818,29.8781,92.1404,267.9914,0,U,51638,999,21353,-.18526024E-2,-.634E-5,0
ONEWEB-0445,2022-012T,2026-07-19T00:49:20.110656,13.10377142,.00019055,87.8825,29.9101,85.5210,274.6135,0,U,51639,999,21351,-.12479104E-2,-.423E-5,0
ONEWEB-0446,2022-012U,2026-07-19T05:47:26.059776,13.10370450,.00020997,87.8814,29.8955,81.9089,278.2277,0,U,51640,999,21352,-.17824312E-2,-.609E-5,0
ONEWEB-0448,2022-012V,2026-07-19T05:54:45.718272,13.10372142,.00018187,87.8814,29.8897,88.9775,271.1561,0,U,51641,999,21349,-.18582232E-2,-.636E-5,0
ONEWEB-0449,2022-012W,2026-07-19T00:32:13.712352,13.10374176,.00017568,87.8822,29.9217,68.9489,291.1826,0,U,51642,999,21347,-.20832632E-2,-.715E-5,0
ONEWEB-0451,2022-012X,2026-07-18T22:48:12.748320,13.17648894,.00016832,87.9159,359.5276,89.5029,270.6296,0,U,51643,999,21784,-.61048716E-3,-.224E-5,0
ONEWEB-0452,2022-012Y,2026-07-18T22:45:47.793312,13.17647313,.00015475,87.9145,359.5618,93.8474,266.2835,0,U,51644,999,21785,-.36191642E-4,-.1E-7,0
ONEWEB-0456,2022-012AA,2026-07-19T06:14:18.390048,13.10373904,.00018462,87.8832,29.8640,92.8516,267.2822,0,U,51646,999,21354,-.13292897E-2,-.451E-5,0
ONEWEB-0457,2022-012AB,2026-07-19T05:42:21.447936,13.10370563,.00020755,87.8819,29.8828,77.5195,282.6165,0,U,51647,999,21354,-.11483573E-2,-.388E-5,0
ONEWEB-0458,2022-012AC,2026-07-19T06:13:05.969568,13.10375878,.000161,87.8819,29.8679,88.4295,271.7017,0,U,51648,999,21350,-.12357044E-2,-.419E-5,0
ONEWEB-0461,2022-012AD,2026-07-19T02:56:04.672320,13.17648972,.00019147,87.9161,359.5070,90.6801,269.4550,0,U,51649,999,21809,-.28444844E-3,-.98E-6,0
ONEWEB-0463,2022-012AE,2026-07-19T04:18:41.690880,13.17648317,.00019834,87.9149,359.5150,90.3765,269.7594,0,U,51650,999,21788,-.65608325E-3,-.242E-5,0
ONEWEB-0464,2022-012AF,2026-07-19T06:09:26.450496,13.10374832,.00016335,87.8813,29.8895,96.3027,263.8286,0,U,51651,999,21352,-.14794811E-2,-.504E-5,0
ONEWEB-0468,2022-012AG,2026-07-19T06:16:45.375456,13.10374123,.00017353,87.8816,29.8813,95.7013,264.4312,0,U,51652,999,21350,-.11293676E-2,-.382E-5,0
